METHANESAT              
1 59101U 24043D   25209.93546241  .00002087  00000+0  19327-3 0  9992
2 59101  97.8054 335.8121 0011108  15.9689 344.1880 14.95551365 76299
GOSAT-GW (IBUKI GW)     
1 64694U 25141A   25209.60252797  .00000810  00000+0  15106-3 0  9992
2 64694  98.0258 147.7525 0001451  85.5178 274.6193 14.67568786  4384
GHGSAT-C1               
1 46278U 20061G   25210.14995304  .00014790  00000+0  24867-3 0  9991
2 46278  97.2481 284.1660 0003103 132.6277 227.5237 15.51844251273097
GHGSAT-C2               
1 47509U 21006DA  25209.56988486  .00005095  00000+0  16333-3 0  9993
2 47509  97.2648 257.4741 0004259 241.3106 118.7709 15.32783816250194
GHGSAT-C3               
1 52737U 22057F   25210.18646769  .00006231  00000+0  22522-3 0  9994
2 52737  97.6184 341.0029 0006902 172.7450 187.3891 15.28814542176093
GHGSAT-C4               
1 52746U 22057Q   25210.13928193  .00006008  00000+0  21727-3 0  9991
2 52746  97.6113 340.1066 0007452 159.9364 200.2170 15.28806984176094
GHGSAT-C5               
1 52744U 22057N   25210.15560359  .00006108  00000+0  22092-3 0  9994
2 52744  97.6270 342.1706 0007981 171.0428 189.0955 15.28793423176090
GHGSAT-C6               
1 56204U 23054AC  25210.16806657  .00010130  00000+0  23549-3 0  9990
2 56204  97.3263 111.4386 0010786 130.3085 229.9107 15.42467192128490
GHGSAT-C7               
1 56209U 23054AH  25210.18200247  .00008241  00000+0  19722-3 0  9998
2 56209  97.3224 110.9948 0010834 124.2508 235.9767 15.41656308128493
GHGSAT-C8               
1 56186U 23054J   25210.20770510  .00010163  00000+0  23628-3 0  9996
2 56186  97.3232 110.9620 0007650 143.7823 216.3943 15.42494189128487
SENTINEL-5P             
1 42969U 17064A   25210.09564019  .00000059  00000+0  48848-4 0  9991
2 42969  98.7585 150.0454 0001338  84.6076 275.5253 14.19534809403728
ENMAP                   
1 52159U 22033C   25209.57235098  .00000488  00000+0  80091-4 0  9990
2 52159  97.9781 291.4702 0001293  88.2311 271.9046 14.74971273178952
PRISMA                  
1 44072U 19015A   25210.16177384  .00000835  00000+0  10757-3 0  9998
2 44072  97.8737 284.5653 0001236  93.7062 266.4293 14.83646222344159
SENTINEL-2A             
1 40697U 15028A   25210.20772433  .00000116  00000+0  61078-4 0  9993
2 40697  98.5678 284.6933 0001167  94.7100 265.4216 14.30821482527544
SENTINEL-2B             
1 42063U 17013A   25210.20052615  .00000107  00000+0  57626-4 0  9995
2 42063  98.5681 284.6285 0001272  98.6560 261.4767 14.30823285438469
SENTINEL-2C             
1 60989U 24157A   25209.81615896  .00000114  00000+0  60081-4 0  9997
2 60989  98.5670 284.3234 0001200  97.5089 262.6230 14.30821675 46745
LANDSAT 8               
1 39084U 13008A   25210.20976074  .00000372  00000+0  92700-4 0  9994
2 39084  98.2235 280.1667 0001243  90.0435 270.0906 14.57112770662683
LANDSAT 9               
1 49260U 21088A   25210.17542288  .00000388  00000+0  96248-4 0  9998
2 49260  98.2255 280.1342 0001324  84.8583 275.2766 14.57110322203950
TANAGER-1               
1 60507U 24149AR  25210.18059729  .00011985  00000+0  26658-3 0  9992
2 60507  97.3993 295.0789 0008882 243.2547 116.7792 15.43764623 53207
